CCSDS_OMM_VERS = 2.0
CREATION_DATE  = 
ORIGINATOR     = 

OBJECT_NAME    = STRIX-5
OBJECT_ID      = 2025-229A
CENTER_NAME    = EARTH
REF_FRAME      = TEME
TIME_SYSTEM    = UTC
MEAN_ELEMENT_THEORY = SGP/SGP4

EPOCH          = 2025-11-13T02:40:02.591040
MEAN_MOTION    = 15.01914824
ECCENTRICITY   = .0038115
INCLINATION    = 41.9288
RA_OF_ASC_NODE = 43.5131
ARG_OF_PERICENTER = 78.2209
MEAN_ANOMALY   = 282.2888

EPHEMERIS_TYPE = 0
CLASSIFICATION_TYPE = U
NORAD_CAT_ID   = 65971
ELEMENT_SET_NO = 999
REV_AT_EPOCH   = 445
BSTAR          = .12596E-2
MEAN_MOTION_DOT = .16856E-3
MEAN_MOTION_DDOT = 0

CCSDS_OMM_VERS = 2.0
CREATION_DATE  = 
ORIGINATOR     = 

OBJECT_NAME    = ELECTRON R/B
OBJECT_ID      = 2025-229B
CENTER_NAME    = EARTH
REF_FRAME      = TEME
TIME_SYSTEM    = UTC
MEAN_ELEMENT_THEORY = SGP/SGP4

EPOCH          = 2025-11-08T01:21:47.928672
MEAN_MOTION    = 15.01793365
ECCENTRICITY   = .00385851
INCLINATION    = 41.9280
RA_OF_ASC_NODE = 71.4275
ARG_OF_PERICENTER = 44.3366
MEAN_ANOMALY   = 316.0539

EPHEMERIS_TYPE = 0
CLASSIFICATION_TYPE = U
NORAD_CAT_ID   = 65972
ELEMENT_SET_NO = 999
REV_AT_EPOCH   = 367
BSTAR          = .57452653E-3
MEAN_MOTION_DOT = .755E-4
MEAN_MOTION_DDOT = 0

CCSDS_OMM_VERS = 2.0
CREATION_DATE  = 
ORIGINATOR     = 

OBJECT_NAME    = ELECTRON KICK STAGE R/B
OBJECT_ID      = 2025-229C
CENTER_NAME    = EARTH
REF_FRAME      = TEME
TIME_SYSTEM    = UTC
MEAN_ELEMENT_THEORY = SGP/SGP4

EPOCH          = 2025-11-12T15:05:45.117024
MEAN_MOTION    = 15.02809150
ECCENTRICITY   = .00393768
INCLINATION    = 41.9846
RA_OF_ASC_NODE = 46.1144
ARG_OF_PERICENTER = 74.9282
MEAN_ANOMALY   = 285.5896

EPHEMERIS_TYPE = 0
CLASSIFICATION_TYPE = U
NORAD_CAT_ID   = 65973
ELEMENT_SET_NO = 999
REV_AT_EPOCH   = 435
BSTAR          = .10466085E-2
MEAN_MOTION_DOT = .14322E-3
MEAN_MOTION_DDOT = 0

CCSDS_OMM_VERS = 2.0
CREATION_DATE  = 
ORIGINATOR     = 

OBJECT_NAME    = SDA_1664
OBJECT_ID      = 2025-230A
CENTER_NAME    = EARTH
REF_FRAME      = TEME
TIME_SYSTEM    = UTC
MEAN_ELEMENT_THEORY = SGP/SGP4

EPOCH          = 2025-11-13T02:44:23.786016
MEAN_MOTION    = 13.84699276
ECCENTRICITY   = .0003109
INCLINATION    = 81.3002
RA_OF_ASC_NODE = 52.0864
ARG_OF_PERICENTER = 44.8916
MEAN_ANOMALY   = 315.2492

EPHEMERIS_TYPE = 0
CLASSIFICATION_TYPE = U
NORAD_CAT_ID   = 65974
ELEMENT_SET_NO = 999
REV_AT_EPOCH   = 390
BSTAR          = .3719E-3
MEAN_MOTION_DOT = .43E-5
MEAN_MOTION_DDOT = 0

CCSDS_OMM_VERS = 2.0
CREATION_DATE  = 
ORIGINATOR     = 

OBJECT_NAME    = SDA_1665
OBJECT_ID      = 2025-230B
CENTER_NAME    = EARTH
REF_FRAME      = TEME
TIME_SYSTEM    = UTC
MEAN_ELEMENT_THEORY = SGP/SGP4

EPOCH          = 2025-11-13T02:23:06.095040
MEAN_MOTION    = 13.85429617
ECCENTRICITY   = .0004998
INCLINATION    = 81.3039
RA_OF_ASC_NODE = 52.0815
ARG_OF_PERICENTER = 86.6510
MEAN_ANOMALY   = 273.5219

EPHEMERIS_TYPE = 0
CLASSIFICATION_TYPE = U
NORAD_CAT_ID   = 65975
ELEMENT_SET_NO = 999
REV_AT_EPOCH   = 390
BSTAR          = .38531E-3
MEAN_MOTION_DOT = .451E-5
MEAN_MOTION_DDOT = 0

CCSDS_OMM_VERS = 2.0
CREATION_DATE  = 
ORIGINATOR     = 

OBJECT_NAME    = SDA_1666
OBJECT_ID      = 2025-230C
CENTER_NAME    = EARTH
REF_FRAME      = TEME
TIME_SYSTEM    = UTC
MEAN_ELEMENT_THEORY = SGP/SGP4

EPOCH          = 2025-11-13T02:46:28.795584
MEAN_MOTION    = 13.84628092
ECCENTRICITY   = .0002744
INCLINATION    = 81.3011
RA_OF_ASC_NODE = 52.0912
ARG_OF_PERICENTER = 42.4850
MEAN_ANOMALY   = 317.6519

EPHEMERIS_TYPE = 0
CLASSIFICATION_TYPE = U
NORAD_CAT_ID   = 65976
ELEMENT_SET_NO = 999
REV_AT_EPOCH   = 390
BSTAR          = .31985E-3
MEAN_MOTION_DOT = .371E-5
MEAN_MOTION_DDOT = 0

CCSDS_OMM_VERS = 2.0
CREATION_DATE  = 
ORIGINATOR     = 

OBJECT_NAME    = SDA_1667
OBJECT_ID      = 2025-230D
CENTER_NAME    = EARTH
REF_FRAME      = TEME
TIME_SYSTEM    = UTC
MEAN_ELEMENT_THEORY = SGP/SGP4

EPOCH          = 2025-11-13T02:39:09.076608
MEAN_MOTION    = 13.84879254
ECCENTRICITY   = .0003699
INCLINATION    = 81.3006
RA_OF_ASC_NODE = 52.0831
ARG_OF_PERICENTER = 55.4580
MEAN_ANOMALY   = 304.6925

EPHEMERIS_TYPE = 0
CLASSIFICATION_TYPE = U
NORAD_CAT_ID   = 65977
ELEMENT_SET_NO = 999
REV_AT_EPOCH   = 390
BSTAR          = .33406E-3
MEAN_MOTION_DOT = .389E-5
MEAN_MOTION_DDOT = 0

CCSDS_OMM_VERS = 2.0
CREATION_DATE  = 
ORIGINATOR     = 

OBJECT_NAME    = SDA_1668
OBJECT_ID      = 2025-230E
CENTER_NAME    = EARTH
REF_FRAME      = TEME
TIME_SYSTEM    = UTC
MEAN_ELEMENT_THEORY = SGP/SGP4

EPOCH          = 2025-11-13T02:21:53.411040
MEAN_MOTION    = 13.85471753
ECCENTRICITY   = .0004916
INCLINATION    = 81.3022
RA_OF_ASC_NODE = 52.0708
ARG_OF_PERICENTER = 89.4750
MEAN_ANOMALY   = 270.6971

EPHEMERIS_TYPE = 0
CLASSIFICATION_TYPE = U
NORAD_CAT_ID   = 65978
ELEMENT_SET_NO = 999
REV_AT_EPOCH   = 390
BSTAR          = .39116E-3
MEAN_MOTION_DOT = .458E-5
MEAN_MOTION_DDOT = 0

CCSDS_OMM_VERS = 2.0
CREATION_DATE  = 
ORIGINATOR     = 

OBJECT_NAME    = SDA_1669
OBJECT_ID      = 2025-230F
CENTER_NAME    = EARTH
REF_FRAME      = TEME
TIME_SYSTEM    = UTC
MEAN_ELEMENT_THEORY = SGP/SGP4

EPOCH          = 2025-11-13T02:28:40.977984
MEAN_MOTION    = 13.85238689
ECCENTRICITY   = .0004937
INCLINATION    = 81.3024
RA_OF_ASC_NODE = 52.0777
ARG_OF_PERICENTER = 76.5520
MEAN_ANOMALY   = 283.6187

EPHEMERIS_TYPE = 0
CLASSIFICATION_TYPE = U
NORAD_CAT_ID   = 65979
ELEMENT_SET_NO = 999
REV_AT_EPOCH   = 390
BSTAR          = .36746E-3
MEAN_MOTION_DOT = .429E-5
MEAN_MOTION_DDOT = 0

CCSDS_OMM_VERS = 2.0
CREATION_DATE  = 
ORIGINATOR     = 

OBJECT_NAME    = SDA_1670
OBJECT_ID      = 2025-230G
CENTER_NAME    = EARTH
REF_FRAME      = TEME
TIME_SYSTEM    = UTC
MEAN_ELEMENT_THEORY = SGP/SGP4

EPOCH          = 2025-11-13T02:41:01.996224
MEAN_MOTION    = 13.84815385
ECCENTRICITY   = .0003343
INCLINATION    = 81.3002
RA_OF_ASC_NODE = 52.0834
ARG_OF_PERICENTER = 51.7677
MEAN_ANOMALY   = 308.3780

EPHEMERIS_TYPE = 0
CLASSIFICATION_TYPE = U
NORAD_CAT_ID   = 65980
ELEMENT_SET_NO = 999
REV_AT_EPOCH   = 390
BSTAR          = .37268E-3
MEAN_MOTION_DOT = .432E-5
MEAN_MOTION_DDOT = 0

CCSDS_OMM_VERS = 2.0
CREATION_DATE  = 
ORIGINATOR     = 

OBJECT_NAME    = SDA_1671
OBJECT_ID      = 2025-230H
CENTER_NAME    = EARTH
REF_FRAME      = TEME
TIME_SYSTEM    = UTC
MEAN_ELEMENT_THEORY = SGP/SGP4

EPOCH          = 2025-11-13T02:24:58.796064
MEAN_MOTION    = 13.85364892
ECCENTRICITY   = .0004938
INCLINATION    = 81.3028
RA_OF_ASC_NODE = 52.0753
ARG_OF_PERICENTER = 83.7052
MEAN_ANOMALY   = 276.4667

EPHEMERIS_TYPE = 0
CLASSIFICATION_TYPE = U
NORAD_CAT_ID   = 65981
ELEMENT_SET_NO = 999
REV_AT_EPOCH   = 390
BSTAR          = .38018E-3
MEAN_MOTION_DOT = .444E-5
MEAN_MOTION_DDOT = 0

CCSDS_OMM_VERS = 2.0
CREATION_DATE  = 
ORIGINATOR     = 

OBJECT_NAME    = SDA_1672
OBJECT_ID      = 2025-230J
CENTER_NAME    = EARTH
REF_FRAME      = TEME
TIME_SYSTEM    = UTC
MEAN_ELEMENT_THEORY = SGP/SGP4

EPOCH          = 2025-11-13T02:36:51.964992
MEAN_MOTION    = 13.84957592
ECCENTRICITY   = .0004086
INCLINATION    = 81.3036
RA_OF_ASC_NODE = 52.0896
ARG_OF_PERICENTER = 57.1408
MEAN_ANOMALY   = 303.0142

EPHEMERIS_TYPE = 0
CLASSIFICATION_TYPE = U
NORAD_CAT_ID   = 65982
ELEMENT_SET_NO = 999
REV_AT_EPOCH   = 390
BSTAR          = .32467E-3
MEAN_MOTION_DOT = .379E-5
MEAN_MOTION_DDOT = 0

