STRIX-5                 
1 65971U 25229A   25317.11114110  .00016856  00000+0  12596-2 0  9996
2 65971  41.9288  43.5131 0038115  78.2209 282.2888 15.01914824  4451
ELECTRON R/B            
1 65972U 25229B   25312.05680473  .00007550  00000+0  57453-3 0  9998
2 65972  41.9280  71.4275 0038585  44.3366 316.0539 15.01793365  3679
ELECTRON KICK STAGE R/B 
1 65973U 25229C   25316.62899441  .00014322  00000+0  10466-2 0  9990
2 65973  41.9846  46.1144 0039376  74.9282 285.5896 15.02809150  4350
SDA_1664                
1 65974U 25230A   25317.11416419  .00000430  00000+0  37190-3 0  9997
2 65974  81.3002  52.0864 0003109  44.8916 315.2492 13.84699276  3900
SDA_1665                
1 65975U 25230B   25317.09937610  .00000451  00000+0  38531-3 0  9999
2 65975  81.3039  52.0815 0004998  86.6510 273.5219 13.85429617  3902
SDA_1666                
1 65976U 25230C   25317.11561106  .00000371  00000+0  31985-3 0  9993
2 65976  81.3011  52.0912 0002744  42.4850 317.6519 13.84628092  3905
SDA_1667                
1 65977U 25230D   25317.11052172  .00000389  00000+0  33406-3 0  9991
2 65977  81.3006  52.0831 0003699  55.4580 304.6925 13.84879254  3909
SDA_1668                
1 65978U 25230E   25317.09853485  .00000458  00000+0  39116-3 0  9996
2 65978  81.3022  52.0708 0004916  89.4750 270.6971 13.85471753  3906
SDA_1669                
1 65979U 25230F   25317.10325206  .00000429  00000+0  36746-3 0  9998
2 65979  81.3024  52.0777 0004937  76.5520 283.6187 13.85238689  3902
SDA_1670                
1 65980U 25230G   25317.11182866  .00000432  00000+0  37268-3 0  9998
2 65980  81.3002  52.0834 0003343  51.7677 308.3780 13.84815385  3909
SDA_1671                
1 65981U 25230H   25317.10068051  .00000444  00000+0  38018-3 0  9994
2 65981  81.3028  52.0753 0004938  83.7052 276.4667 13.85364892  3903
SDA_1672                
1 65982U 25230J   25317.10893478  .00000379  00000+0  32467-3 0  9993
2 65982  81.3036  52.0896 0004086  57.1408 303.0142 13.84957592  3904
